[{"OBJECT_NAME":"ONEWEB-0514","OBJECT_ID":"2022-138V","EPOCH":"2025-11-08T03:59:49.322112","MEAN_MOTION":13.19726373,"ECCENTRICITY":0.0001772,"INCLINATION":87.9228,"RA_OF_ASC_NODE":348.9385,"ARG_OF_PERICENTER":94.7697,"MEAN_ANOMALY":265.3638,"EPHEMERIS_TYPE":0,"CLASSIFICATION_TYPE":"U","NORAD_CAT_ID":54132,"ELEMENT_SET_NO":999,"REV_AT_EPOCH":14767,"BSTAR":0.00010034,"MEAN_MOTION_DOT":5.3e-7,"MEAN_MOTION_DDOT":0},{"OBJECT_NAME":"ONEWEB-0515","OBJECT_ID":"2022-138W","EPOCH":"2025-11-08T01:27:11.653056","MEAN_MOTION":13.20772141,"ECCENTRICITY":0.0002238,"INCLINATION":87.9186,"RA_OF_ASC_NODE":318.5219,"ARG_OF_PERICENTER":68.8463,"MEAN_ANOMALY":291.2909,"EPHEMERIS_TYPE":0,"CLASSIFICATION_TYPE":"U","NORAD_CAT_ID":54133,"ELEMENT_SET_NO":999,"REV_AT_EPOCH":15011,"BSTAR":7.566e-5,"MEAN_MOTION_DOT":4.4e-7,"MEAN_MOTION_DDOT":0},{"OBJECT_NAME":"ONEWEB-0516","OBJECT_ID":"2022-138X","EPOCH":"2025-11-08T03:23:25.492992","MEAN_MOTION":13.1972661,"ECCENTRICITY":0.0001961,"INCLINATION":87.9214,"RA_OF_ASC_NODE":348.9664,"ARG_OF_PERICENTER":96.2731,"MEAN_ANOMALY":263.8626,"EPHEMERIS_TYPE":0,"CLASSIFICATION_TYPE":"U","NORAD_CAT_ID":54134,"ELEMENT_SET_NO":999,"REV_AT_EPOCH":14767,"BSTAR":0.00013688,"MEAN_MOTION_DOT":6.8e-7,"MEAN_MOTION_DDOT":0},{"OBJECT_NAME":"ONEWEB-0517","OBJECT_ID":"2022-138Y","EPOCH":"2025-11-08T02:53:51.772704","MEAN_MOTION":13.19725454,"ECCENTRICITY":0.0001572,"INCLINATION":87.9237,"RA_OF_ASC_NODE":348.9451,"ARG_OF_PERICENTER":100.332,"MEAN_ANOMALY":259.799,"EPHEMERIS_TYPE":0,"CLASSIFICATION_TYPE":"U","NORAD_CAT_ID":54135,"ELEMENT_SET_NO":999,"REV_AT_EPOCH":14767,"BSTAR":5.887e-5,"MEAN_MOTION_DOT":3.7e-7,"MEAN_MOTION_DDOT":0},{"OBJECT_NAME":"ONEWEB-0518","OBJECT_ID":"2022-138Z","EPOCH":"2025-11-08T03:21:09.340416","MEAN_MOTION":13.19725885,"ECCENTRICITY":0.0001903,"INCLINATION":87.9218,"RA_OF_ASC_NODE":348.9691,"ARG_OF_PERICENTER":100.2823,"MEAN_ANOMALY":259.8524,"EPHEMERIS_TYPE":0,"CLASSIFICATION_TYPE":"U","NORAD_CAT_ID":54136,"ELEMENT_SET_NO":999,"REV_AT_EPOCH":14767,"BSTAR":0.00011518,"MEAN_MOTION_DOT":5.9e-7,"MEAN_MOTION_DDOT":0},{"OBJECT_NAME":"ONEWEB-0519","OBJECT_ID":"2022-138AA","EPOCH":"2025-11-08T03:57:32.882688","MEAN_MOTION":13.19725846,"ECCENTRICITY":0.0001682,"INCLINATION":87.9237,"RA_OF_ASC_NODE":348.9277,"ARG_OF_PERICENTER":100.4918,"MEAN_ANOMALY":259.6404,"EPHEMERIS_TYPE":0,"CLASSIFICATION_TYPE":"U","NORAD_CAT_ID":54137,"ELEMENT_SET_NO":999,"REV_AT_EPOCH":14768,"BSTAR":-4.9072e-5,"MEAN_MOTION_DOT":-7.0e-8,"MEAN_MOTION_DDOT":0},{"OBJECT_NAME":"ONEWEB-0520","OBJECT_ID":"2022-138AB","EPOCH":"2025-11-08T02:58:24.329280","MEAN_MOTION":13.19726323,"ECCENTRICITY":0.0002112,"INCLINATION":87.9238,"RA_OF_ASC_NODE":348.94,"ARG_OF_PERICENTER":102.6035,"MEAN_ANOMALY":257.5334,"EPHEMERIS_TYPE":0,"CLASSIFICATION_TYPE":"U","NORAD_CAT_ID":54138,"ELEMENT_SET_NO":999,"REV_AT_EPOCH":14766,"BSTAR":0.00015837,"MEAN_MOTION_DOT":7.6e-7,"MEAN_MOTION_DDOT":0},{"OBJECT_NAME":"ONEWEB-0521","OBJECT_ID":"2022-138AC","EPOCH":"2025-11-08T01:56:59.543808","MEAN_MOTION":13.19726727,"ECCENTRICITY":0.0001625,"INCLINATION":87.9233,"RA_OF_ASC_NODE":348.9336,"ARG_OF_PERICENTER":96.7524,"MEAN_ANOMALY":263.3793,"EPHEMERIS_TYPE":0,"CLASSIFICATION_TYPE":"U","NORAD_CAT_ID":54139,"ELEMENT_SET_NO":999,"REV_AT_EPOCH":14760,"BSTAR":6.949e-6,"MEAN_MOTION_DOT":1.6e-7,"MEAN_MOTION_DDOT":0},{"OBJECT_NAME":"ONEWEB-0522","OBJECT_ID":"2022-138AD","EPOCH":"2025-11-08T03:16:35.348736","MEAN_MOTION":13.19727652,"ECCENTRICITY":0.0001968,"INCLINATION":87.9231,"RA_OF_ASC_NODE":348.9233,"ARG_OF_PERICENTER":100.966,"MEAN_ANOMALY":259.1694,"EPHEMERIS_TYPE":0,"CLASSIFICATION_TYPE":"U","NORAD_CAT_ID":54140,"ELEMENT_SET_NO":999,"REV_AT_EPOCH":14765,"BSTAR":0.00043871,"MEAN_MOTION_DOT":1.89e-6,"MEAN_MOTION_DDOT":0},{"OBJECT_NAME":"ONEWEB-0523","OBJECT_ID":"2022-138AE","EPOCH":"2025-11-08T01:09:01.316160","MEAN_MOTION":13.20770852,"ECCENTRICITY":0.0001639,"INCLINATION":87.9175,"RA_OF_ASC_NODE":318.5445,"ARG_OF_PERICENTER":62.3992,"MEAN_ANOMALY":297.7308,"EPHEMERIS_TYPE":0,"CLASSIFICATION_TYPE":"U","NORAD_CAT_ID":54141,"ELEMENT_SET_NO":999,"REV_AT_EPOCH":15011,"BSTAR":9.5392e-5,"MEAN_MOTION_DOT":5.2e-7,"MEAN_MOTION_DDOT":0},{"OBJECT_NAME":"ONEWEB-0524","OBJECT_ID":"2022-138AF","EPOCH":"2025-11-08T00:53:06.737856","MEAN_MOTION":13.20770815,"ECCENTRICITY":0.0002518,"INCLINATION":87.9183,"RA_OF_ASC_NODE":318.5493,"ARG_OF_PERICENTER":73.9497,"MEAN_ANOMALY":286.1913,"EPHEMERIS_TYPE":0,"CLASSIFICATION_TYPE":"U","NORAD_CAT_ID":54142,"ELEMENT_SET_NO":999,"REV_AT_EPOCH":15011,"BSTAR":0.00026068,"MEAN_MOTION_DOT":1.19e-6,"MEAN_MOTION_DDOT":0},{"OBJECT_NAME":"ONEWEB-0525","OBJECT_ID":"2022-138AG","EPOCH":"2025-11-08T01:54:43.298784","MEAN_MOTION":13.19725832,"ECCENTRICITY":0.0001956,"INCLINATION":87.9228,"RA_OF_ASC_NODE":348.956,"ARG_OF_PERICENTER":100.8569,"MEAN_ANOMALY":259.2784,"EPHEMERIS_TYPE":0,"CLASSIFICATION_TYPE":"U","NORAD_CAT_ID":54143,"ELEMENT_SET_NO":999,"REV_AT_EPOCH":14766,"BSTAR":0.00023764,"MEAN_MOTION_DOT":1.08e-6,"MEAN_MOTION_DDOT":0},{"OBJECT_NAME":"ONEWEB-0526","OBJECT_ID":"2022-138AH","EPOCH":"2025-11-08T02:42:29.541024","MEAN_MOTION":13.19726385,"ECCENTRICITY":0.0001986,"INCLINATION":87.9237,"RA_OF_ASC_NODE":348.9371,"ARG_OF_PERICENTER":97.5696,"MEAN_ANOMALY":262.5662,"EPHEMERIS_TYPE":0,"CLASSIFICATION_TYPE":"U","NORAD_CAT_ID":54144,"ELEMENT_SET_NO":999,"REV_AT_EPOCH":14764,"BSTAR":0.00025143,"MEAN_MOTION_DOT":1.14e-6,"MEAN_MOTION_DDOT":0},{"OBJECT_NAME":"ONEWEB-0529","OBJECT_ID":"2022-138AJ","EPOCH":"2025-11-08T02:47:02.234976","MEAN_MOTION":13.19726403,"ECCENTRICITY":0.000209,"INCLINATION":87.9219,"RA_OF_ASC_NODE":348.969,"ARG_OF_PERICENTER":100.3632,"MEAN_ANOMALY":259.7736,"EPHEMERIS_TYPE":0,"CLASSIFICATION_TYPE":"U","NORAD_CAT_ID":54145,"ELEMENT_SET_NO":999,"REV_AT_EPOCH":14766,"BSTAR":0.00018714,"MEAN_MOTION_DOT":8.8e-7,"MEAN_MOTION_DDOT":0},{"OBJECT_NAME":"ONEWEB-0531","OBJECT_ID":"2022-138AK","EPOCH":"2025-11-08T02:21:44.364960","MEAN_MOTION":13.20773015,"ECCENTRICITY":0.0001936,"INCLINATION":87.9189,"RA_OF_ASC_NODE":318.5285,"ARG_OF_PERICENTER":64.4687,"MEAN_ANOMALY":295.6646,"EPHEMERIS_TYPE":0,"CLASSIFICATION_TYPE":"U","NORAD_CAT_ID":54146,"ELEMENT_SET_NO":999,"REV_AT_EPOCH":15012,"BSTAR":-0.00032184,"MEAN_MOTION_DOT":-1.18e-6,"MEAN_MOTION_DDOT":0},{"OBJECT_NAME":"ONEWEB-0535","OBJECT_ID":"2022-138AL","EPOCH":"2025-11-08T03:34:47.976960","MEAN_MOTION":13.19726798,"ECCENTRICITY":0.0001631,"INCLINATION":87.9235,"RA_OF_ASC_NODE":348.925,"ARG_OF_PERICENTER":87.3096,"MEAN_ANOMALY":272.8223,"EPHEMERIS_TYPE":0,"CLASSIFICATION_TYPE":"U","NORAD_CAT_ID":54147,"ELEMENT_SET_NO":999,"REV_AT_EPOCH":14768,"BSTAR":0.00024038,"MEAN_MOTION_DOT":1.09e-6,"MEAN_MOTION_DDOT":0},{"OBJECT_NAME":"ONEWEB-0536","OBJECT_ID":"2022-138AM","EPOCH":"2025-11-08T02:03:34.179264","MEAN_MOTION":13.20770688,"ECCENTRICITY":0.0002201,"INCLINATION":87.9177,"RA_OF_ASC_NODE":318.5775,"ARG_OF_PERICENTER":61.2172,"MEAN_ANOMALY":298.9183,"EPHEMERIS_TYPE":0,"CLASSIFICATION_TYPE":"U","NORAD_CAT_ID":54148,"ELEMENT_SET_NO":999,"REV_AT_EPOCH":15011,"BSTAR":4.4677e-5,"MEAN_MOTION_DOT":3.1e-7,"MEAN_MOTION_DDOT":0}]
