ONEWEB-0514             
1 54132U 22138V   25312.16654308  .00000053  00000+0  10034-3 0  9995
2 54132  87.9228 348.9385 0001772  94.7697 265.3638 13.19726373147672
ONEWEB-0515             
1 54133U 22138W   25312.06055154  .00000044  00000+0  75660-4 0  9996
2 54133  87.9186 318.5219 0002238  68.8463 291.2909 13.20772141150114
ONEWEB-0516             
1 54134U 22138X   25312.14126728  .00000068  00000+0  13688-3 0  9999
2 54134  87.9214 348.9664 0001961  96.2731 263.8626 13.19726610147679
ONEWEB-0517             
1 54135U 22138Y   25312.12073811  .00000037  00000+0  58870-4 0  9991
2 54135  87.9237 348.9451 0001572 100.3320 259.7990 13.19725454147671
ONEWEB-0518             
1 54136U 22138Z   25312.13969144  .00000059  00000+0  11518-3 0  9997
2 54136  87.9218 348.9691 0001903 100.2823 259.8524 13.19725885147674
ONEWEB-0519             
1 54137U 22138AA  25312.16496392 -.00000007  00000+0 -49072-4 0  9993
2 54137  87.9237 348.9277 0001682 100.4918 259.6404 13.19725846147680
ONEWEB-0520             
1 54138U 22138AB  25312.12389270  .00000076  00000+0  15837-3 0  9991
2 54138  87.9238 348.9400 0002112 102.6035 257.5334 13.19726323147661
ONEWEB-0521             
1 54139U 22138AC  25312.08124472  .00000016  00000+0  69490-5 0  9998
2 54139  87.9233 348.9336 0001625  96.7524 263.3793 13.19726727147605
ONEWEB-0522             
1 54140U 22138AD  25312.13652024  .00000189  00000+0  43871-3 0  9999
2 54140  87.9231 348.9233 0001968 100.9660 259.1694 13.19727652147656
ONEWEB-0523             
1 54141U 22138AE  25312.04793190  .00000052  00000+0  95392-4 0  9995
2 54141  87.9175 318.5445 0001639  62.3992 297.7308 13.20770852150113
ONEWEB-0524             
1 54142U 22138AF  25312.03688354  .00000119  00000+0  26068-3 0  9997
2 54142  87.9183 318.5493 0002518  73.9497 286.1913 13.20770815150114
ONEWEB-0525             
1 54143U 22138AG  25312.07966781  .00000108  00000+0  23764-3 0  9993
2 54143  87.9228 348.9560 0001956 100.8569 259.2784 13.19725832147662
ONEWEB-0526             
1 54144U 22138AH  25312.11284191  .00000114  00000+0  25143-3 0  9997
2 54144  87.9237 348.9371 0001986  97.5696 262.5662 13.19726385147643
ONEWEB-0529             
1 54145U 22138AJ  25312.11599809  .00000088  00000+0  18714-3 0  9999
2 54145  87.9219 348.9690 0002090 100.3632 259.7736 13.19726403147661
ONEWEB-0531             
1 54146U 22138AK  25312.09843015 -.00000118  00000+0 -32184-3 0  9991
2 54146  87.9189 318.5285 0001936  64.4687 295.6646 13.20773015150126
ONEWEB-0535             
1 54147U 22138AL  25312.14916640  .00000109  00000+0  24038-3 0  9990
2 54147  87.9235 348.9250 0001631  87.3096 272.8223 13.19726798147687
ONEWEB-0536             
1 54148U 22138AM  25312.08581226  .00000031  00000+0  44677-4 0  9998
2 54148  87.9177 318.5775 0002201  61.2172 298.9183 13.20770688150113
